[{"OBJECT_NAME":"STARLINK-4405","OBJECT_ID":"2022-084N","EPOCH":"2026-03-09T18:17:35.856384","MEAN_MOTION":15.05657021,"ECCENTRICITY":9.195e-5,"INCLINATION":97.6025,"RA_OF_ASC_NODE":131.3419,"ARG_OF_PERICENTER":102.1471,"MEAN_ANOMALY":257.9859,"EPHEMERIS_TYPE":0,"CLASSIFICATION_TYPE":"U","NORAD_CAT_ID":53201,"ELEMENT_SET_NO":999,"REV_AT_EPOCH":19939,"BSTAR":0.00030510014,"MEAN_MOTION_DOT":4.345e-5,"MEAN_MOTION_DDOT":0},{"OBJECT_NAME":"COSMOS 2251 DEB","OBJECT_ID":"1993-036SV","EPOCH":"2026-03-09T21:55:42.811680","MEAN_MOTION":15.15006345,"ECCENTRICITY":0.00579573,"INCLINATION":74.0283,"RA_OF_ASC_NODE":1.8812,"ARG_OF_PERICENTER":55.6817,"MEAN_ANOMALY":304.9843,"EPHEMERIS_TYPE":0,"CLASSIFICATION_TYPE":"U","NORAD_CAT_ID":34452,"ELEMENT_SET_NO":999,"REV_AT_EPOCH":91981,"BSTAR":0.0011020825,"MEAN_MOTION_DOT":0.00021495,"MEAN_MOTION_DDOT":0}]
